CCSDS_OMM_VERS = 2.0
CREATION_DATE  = 
ORIGINATOR     = 

OBJECT_NAME    = CORAL
OBJECT_ID      = 1998-067YA
CENTER_NAME    = EARTH
REF_FRAME      = TEME
TIME_SYSTEM    = UTC
MEAN_ELEMENT_THEORY = SGP/SGP4

EPOCH          = 2026-03-25T18:14:20.917248
MEAN_MOTION    = 15.57013747
ECCENTRICITY   = .0012394
INCLINATION    = 51.6302
RA_OF_ASC_NODE = 351.2217
ARG_OF_PERICENTER = 233.2422
MEAN_ANOMALY   = 126.7433

EPHEMERIS_TYPE = 0
CLASSIFICATION_TYPE = U
NORAD_CAT_ID   = 67684
ELEMENT_SET_NO = 999
REV_AT_EPOCH   = 729
BSTAR          = .11859E-2
MEAN_MOTION_DOT = .88071E-3
MEAN_MOTION_DDOT = 0

CCSDS_OMM_VERS = 2.0
CREATION_DATE  = 
ORIGINATOR     = 

OBJECT_NAME    = GXIBA-1
OBJECT_ID      = 1998-067YB
CENTER_NAME    = EARTH
REF_FRAME      = TEME
TIME_SYSTEM    = UTC
MEAN_ELEMENT_THEORY = SGP/SGP4

EPOCH          = 2026-03-25T17:55:19.650144
MEAN_MOTION    = 15.53661411
ECCENTRICITY   = .0011867
INCLINATION    = 51.6315
RA_OF_ASC_NODE = 351.8820
ARG_OF_PERICENTER = 240.9990
MEAN_ANOMALY   = 118.9812

EPHEMERIS_TYPE = 0
CLASSIFICATION_TYPE = U
NORAD_CAT_ID   = 67685
ELEMENT_SET_NO = 999
REV_AT_EPOCH   = 728
BSTAR          = .7117E-3
MEAN_MOTION_DOT = .46237E-3
MEAN_MOTION_DDOT = 0

CCSDS_OMM_VERS = 2.0
CREATION_DATE  = 
ORIGINATOR     = 

OBJECT_NAME    = UITMSAT-2
OBJECT_ID      = 1998-067YC
CENTER_NAME    = EARTH
REF_FRAME      = TEME
TIME_SYSTEM    = UTC
MEAN_ELEMENT_THEORY = SGP/SGP4

EPOCH          = 2026-03-25T00:38:35.632320
MEAN_MOTION    = 15.54457501
ECCENTRICITY   = .0008862
INCLINATION    = 51.6330
RA_OF_ASC_NODE = 355.3278
ARG_OF_PERICENTER = 209.1546
MEAN_ANOMALY   = 150.8951

EPHEMERIS_TYPE = 0
CLASSIFICATION_TYPE = U
NORAD_CAT_ID   = 67686
ELEMENT_SET_NO = 999
REV_AT_EPOCH   = 717
BSTAR          = .74425072E-3
MEAN_MOTION_DOT = .49767E-3
MEAN_MOTION_DDOT = 0

CCSDS_OMM_VERS = 2.0
CREATION_DATE  = 
ORIGINATOR     = 

OBJECT_NAME    = HMU-SAT2
OBJECT_ID      = 1998-067YD
CENTER_NAME    = EARTH
REF_FRAME      = TEME
TIME_SYSTEM    = UTC
MEAN_ELEMENT_THEORY = SGP/SGP4

EPOCH          = 2026-03-25T01:02:40.127136
MEAN_MOTION    = 15.53346708
ECCENTRICITY   = .0008398
INCLINATION    = 51.6326
RA_OF_ASC_NODE = 355.4392
ARG_OF_PERICENTER = 211.7886
MEAN_ANOMALY   = 148.2598

EPHEMERIS_TYPE = 0
CLASSIFICATION_TYPE = U
NORAD_CAT_ID   = 67687
ELEMENT_SET_NO = 999
REV_AT_EPOCH   = 709
BSTAR          = .66878E-3
MEAN_MOTION_DOT = .42841E-3
MEAN_MOTION_DDOT = 0

CCSDS_OMM_VERS = 2.0
CREATION_DATE  = 
ORIGINATOR     = 

OBJECT_NAME    = LEOPARD
OBJECT_ID      = 1998-067YE
CENTER_NAME    = EARTH
REF_FRAME      = TEME
TIME_SYSTEM    = UTC
MEAN_ELEMENT_THEORY = SGP/SGP4

EPOCH          = 2026-03-25T00:46:44.576832
MEAN_MOTION    = 15.54065939
ECCENTRICITY   = .0008645
INCLINATION    = 51.6326
RA_OF_ASC_NODE = 355.3651
ARG_OF_PERICENTER = 209.2587
MEAN_ANOMALY   = 150.7920

EPHEMERIS_TYPE = 0
CLASSIFICATION_TYPE = U
NORAD_CAT_ID   = 67688
ELEMENT_SET_NO = 999
REV_AT_EPOCH   = 709
BSTAR          = .76558E-3
MEAN_MOTION_DOT = .50475E-3
MEAN_MOTION_DDOT = 0

CCSDS_OMM_VERS = 2.0
CREATION_DATE  = 
ORIGINATOR     = 

OBJECT_NAME    = CREW DRAGON 12
OBJECT_ID      = 2026-031A
CENTER_NAME    = EARTH
REF_FRAME      = TEME
TIME_SYSTEM    = UTC
MEAN_ELEMENT_THEORY = SGP/SGP4

EPOCH          = 2026-03-25T20:11:46.934880
MEAN_MOTION    = 15.48540672
ECCENTRICITY   = .0006235
INCLINATION    = 51.6341
RA_OF_ASC_NODE = 352.5134
ARG_OF_PERICENTER = 232.7336
MEAN_ANOMALY   = 127.3084

EPHEMERIS_TYPE = 0
CLASSIFICATION_TYPE = U
NORAD_CAT_ID   = 67796
ELEMENT_SET_NO = 999
REV_AT_EPOCH   = 55877
BSTAR          = .22938E-3
MEAN_MOTION_DOT = .12012E-3
MEAN_MOTION_DDOT = 0

CCSDS_OMM_VERS = 2.0
CREATION_DATE  = 
ORIGINATOR     = 

OBJECT_NAME    = PROGRESS-MS 33
OBJECT_ID      = 2026-058A
CENTER_NAME    = EARTH
REF_FRAME      = TEME
TIME_SYSTEM    = UTC
MEAN_ELEMENT_THEORY = SGP/SGP4

EPOCH          = 2026-03-25T20:11:46.934880
MEAN_MOTION    = 15.48540672
ECCENTRICITY   = .0006235
INCLINATION    = 51.6341
RA_OF_ASC_NODE = 352.5134
ARG_OF_PERICENTER = 232.7336
MEAN_ANOMALY   = 127.3084

EPHEMERIS_TYPE = 0
CLASSIFICATION_TYPE = U
NORAD_CAT_ID   = 68319
ELEMENT_SET_NO = 999
REV_AT_EPOCH   = 28
BSTAR          = .22938E-3
MEAN_MOTION_DOT = .12012E-3
MEAN_MOTION_DDOT = 0

